start=new Date('2022-11-10T00:00:00.000Z').valueOf();
sats=[{"GP_ID":"217275962","RA_OF_ASC_NODE":"342.4723","CENTER_NAME":"EARTH","ELEMENT_SET_NO":"999","CLASSIFICATION_TYPE":"U","ARG_OF_PERICENTER":"50.9806","MEAN_MOTION_DDOT":"0.0000000000000","PERIAPSIS":"538.495","FILE":"3650001","OBJECT_NAME":"STARLINK-4008","REV_AT_EPOCH":"2722","APOAPSIS":"540.984","TIME_SYSTEM":"UTC","EPHEMERIS_TYPE":"0","MEAN_ANOMALY":"309.1346","NORAD_CAT_ID":"52622","MEAN_ELEMENT_THEORY":"SGP4","DECAY_DATE":null,"TLE_LINE1":"1 52622U 22052AA  22313.79858512  .00000338  00000-0  39326-4 0  9995","INCLINATION":"53.2179","MEAN_MOTION_DOT":"0.00000338","REF_FRAME":"TEME","TLE_LINE2":"2 52622  53.2179 342.4723 0001799  50.9806 309.1346 15.08842022 27226","OBJECT_ID":"2022-052AA","SITE":"AFETR","PERIOD":"95.437","ECCENTRICITY":"0.00017990","MEAN_MOTION":"15.08842022","LAUNCH_DATE":"2022-05-14","BSTAR":"0.00003932600000","EPOCH":"2022-11-09T19:09:57.754368","RCS_SIZE":"LARGE","SEMIMAJOR_AXIS":"6917.874","COUNTRY_CODE":"US","OBJECT_TYPE":"PAYLOAD"},{"ELEMENT_SET_NO":"999","CLASSIFICATION_TYPE":"U","GP_ID":"217274710","RA_OF_ASC_NODE":"327.6448","CENTER_NAME":"EARTH","PERIAPSIS":"537.809","FILE":"3650001","OBJECT_NAME":"STARLINK-3986","APOAPSIS":"541.822","REV_AT_EPOCH":"2742","MEAN_MOTION_DDOT":"0.0000000000000","ARG_OF_PERICENTER":"32.4957","OBJECT_ID":"2022-052AB","TLE_LINE1":"1 52623U 22052AB  22313.76131836 -.00015309  00000-0 -94632-3 0  9992","DECAY_DATE":null,"MEAN_MOTION_DOT":"-0.00015309","INCLINATION":"53.2156","REF_FRAME":"TEME","TLE_LINE2":"2 52623  53.2156 327.6448 0002900  32.4957 327.6213 15.08817060 27422","ECCENTRICITY":"0.00029000","PERIOD":"95.439","SITE":"AFETR","TIME_SYSTEM":"UTC","MEAN_ELEMENT_THEORY":"SGP4","EPHEMERIS_TYPE":"0","NORAD_CAT_ID":"52623","MEAN_ANOMALY":"327.6213","RCS_SIZE":"LARGE","SEMIMAJOR_AXIS":"6917.951","EPOCH":"2022-11-09T18:16:17.906304","OBJECT_TYPE":"PAYLOAD","COUNTRY_CODE":"US","LAUNCH_DATE":"2022-05-14","BSTAR":"-0.00094632000000","MEAN_MOTION":"15.08817060"},{"MEAN_MOTION_DOT":"-0.00013028","TLE_LINE1":"1 52624U 22052AC  22313.83859009 -.00013028  00000-0 -80221-3 0  9995","DECAY_DATE":null,"INCLINATION":"53.2164","REF_FRAME":"TEME","TLE_LINE2":"2 52624  53.2164 327.2981 0002617  22.9102 337.2007 15.08825031 27437","OBJECT_ID":"2022-052AC","SITE":"AFETR","PERIOD":"95.439","ECCENTRICITY":"0.00026170","TIME_SYSTEM":"UTC","EPHEMERIS_TYPE":"0","NORAD_CAT_ID":"52624","MEAN_ANOMALY":"337.2007","MEAN_ELEMENT_THEORY":"SGP4","EPOCH":"2022-11-09T20:07:34.183776","RCS_SIZE":"LARGE","SEMIMAJOR_AXIS":"6917.926","COUNTRY_CODE":"US","OBJECT_TYPE":"PAYLOAD","LAUNCH_DATE":"2022-05-14","MEAN_MOTION":"15.08825031","BSTAR":"-0.00080221000000","ELEMENT_SET_NO":"999","CLASSIFICATION_TYPE":"U","GP_ID":"217274960","CENTER_NAME":"EARTH","RA_OF_ASC_NODE":"327.2981","FILE":"3650001","OBJECT_NAME":"STARLINK-4009","PERIAPSIS":"537.981","REV_AT_EPOCH":"2743","APOAPSIS":"541.602","ARG_OF_PERICENTER":"22.9102","MEAN_MOTION_DDOT":"0.0000000000000"},{"LAUNCH_DATE":"2022-05-14","MEAN_MOTION":"15.08825163","BSTAR":"-0.00107100000000","COUNTRY_CODE":"US","OBJECT_TYPE":"PAYLOAD","EPOCH":"2022-11-09T18:10:58.848384","RCS_SIZE":"LARGE","SEMIMAJOR_AXIS":"6917.926","EPHEMERIS_TYPE":"0","NORAD_CAT_ID":"52625","MEAN_ANOMALY":"299.8134","MEAN_ELEMENT_THEORY":"SGP4","TIME_SYSTEM":"UTC","PERIOD":"95.438","SITE":"AFETR","ECCENTRICITY":"0.00019740","TLE_LINE1":"1 52625U 22052AD  22313.75762556 -.00017286  00000-0 -10710-2 0  9992","DECAY_DATE":null,"REF_FRAME":"TEME","MEAN_MOTION_DOT":"-0.00017286","INCLINATION":"53.2188","TLE_LINE2":"2 52625  53.2188 327.6506 0001974  60.3055 299.8134 15.08825163 27428","OBJECT_ID":"2022-052AD","ARG_OF_PERICENTER":"60.3055","MEAN_MOTION_DDOT":"0.0000000000000","REV_AT_EPOCH":"2742","APOAPSIS":"541.156","FILE":"3650001","PERIAPSIS":"538.425","OBJECT_NAME":"STARLINK-3988","CENTER_NAME":"EARTH","RA_OF_ASC_NODE":"327.6506","GP_ID":"217276211","CLASSIFICATION_TYPE":"U","ELEMENT_SET_NO":"999"},{"ARG_OF_PERICENTER":"45.0334","MEAN_MOTION_DDOT":"0.0000000000000","OBJECT_NAME":"STARLINK-3990","FILE":"3650001","PERIAPSIS":"538.236","REV_AT_EPOCH":"2742","APOAPSIS":"541.293","GP_ID":"217276463","RA_OF_ASC_NODE":"327.6109","CENTER_NAME":"EARTH","ELEMENT_SET_NO":"999","CLASSIFICATION_TYPE":"U","BSTAR":"0.00003803200000","LAUNCH_DATE":"2022-05-14","MEAN_MOTION":"15.08833696","EPOCH":"2022-11-09T18:26:54.390048","SEMIMAJOR_AXIS":"6917.900","RCS_SIZE":"LARGE","COUNTRY_CODE":"US","OBJECT_TYPE":"PAYLOAD","TIME_SYSTEM":"UTC","MEAN_ANOMALY":"315.0837","NORAD_CAT_ID":"52626","EPHEMERIS_TYPE":"0","MEAN_ELEMENT_THEORY":"SGP4","TLE_LINE2":"2 52626  53.2197 327.6109 0002209  45.0334 315.0837 15.08833696 27421","DECAY_DATE":null,"TLE_LINE1":"1 52626U 22052AE  22313.76868507  .00000317  00000-0  38032-4 0  9991","MEAN_MOTION_DOT":"0.00000317","INCLINATION":"53.2197","REF_FRAME":"TEME","OBJECT_ID":"2022-052AE","SITE":"AFETR","PERIOD":"95.438","ECCENTRICITY":"0.00022090"},{"ECCENTRICITY":"0.00025970","SITE":"AFETR","PERIOD":"95.439","OBJECT_ID":"2022-052AF","TLE_LINE2":"2 52627  53.2172 327.7105 0002597  29.0410 331.0727 15.08816734 27430","TLE_LINE1":"1 52627U 22052AF  22313.74661901 -.00002462  00000-0 -13670-3 0  9994","INCLINATION":"53.2172","DECAY_DATE":null,"MEAN_MOTION_DOT":"-0.00002462","REF_FRAME":"TEME","MEAN_ELEMENT_THEORY":"SGP4","MEAN_ANOMALY":"331.0727","NORAD_CAT_ID":"52627","EPHEMERIS_TYPE":"0","TIME_SYSTEM":"UTC","OBJECT_TYPE":"PAYLOAD","COUNTRY_CODE":"US","SEMIMAJOR_AXIS":"6917.952","RCS_SIZE":"LARGE","EPOCH":"2022-11-09T17:55:07.882464","LAUNCH_DATE":"2022-05-14","MEAN_MOTION":"15.08816734","BSTAR":"-0.00013670000000","CLASSIFICATION_TYPE":"U","ELEMENT_SET_NO":"999","CENTER_NAME":"EARTH","RA_OF_ASC_NODE":"327.7105","GP_ID":"217275211","APOAPSIS":"541.613","REV_AT_EPOCH":"2743","PERIAPSIS":"538.020","FILE":"3650001","OBJECT_NAME":"STARLINK-3992","MEAN_MOTION_DDOT":"0.0000000000000","ARG_OF_PERICENTER":"29.0410"},{"RCS_SIZE":"LARGE","SEMIMAJOR_AXIS":"6917.894","EPOCH":"2022-11-09T20:40:01.674336","OBJECT_TYPE":"PAYLOAD","COUNTRY_CODE":"US","LAUNCH_DATE":"2022-05-14","BSTAR":"-0.00034683000000","MEAN_MOTION":"15.08835620","OBJECT_ID":"2022-052AG","MEAN_MOTION_DOT":"-0.00005803","TLE_LINE1":"1 52628U 22052AG  22313.86113049 -.00005803  00000-0 -34683-3 0  9992","DECAY_DATE":null,"INCLINATION":"53.2176","REF_FRAME":"TEME","TLE_LINE2":"2 52628  53.2176 342.1982 0002038  32.6649 327.4469 15.08835620 27238","ECCENTRICITY":"0.00020380","SITE":"AFETR","PERIOD":"95.438","TIME_SYSTEM":"UTC","MEAN_ELEMENT_THEORY":"SGP4","EPHEMERIS_TYPE":"0","NORAD_CAT_ID":"52628","MEAN_ANOMALY":"327.4469","OBJECT_NAME":"STARLINK-4001","FILE":"3650001","PERIAPSIS":"538.349","APOAPSIS":"541.169","REV_AT_EPOCH":"2723","MEAN_MOTION_DDOT":"0.0000000000000","ARG_OF_PERICENTER":"32.6649","ELEMENT_SET_NO":"999","CLASSIFICATION_TYPE":"U","GP_ID":"217275461","RA_OF_ASC_NODE":"342.1982","CENTER_NAME":"EARTH"},{"GP_ID":"217275711","CENTER_NAME":"EARTH","RA_OF_ASC_NODE":"327.7207","ELEMENT_SET_NO":"999","CLASSIFICATION_TYPE":"U","MEAN_MOTION_DDOT":"0.0000000000000","ARG_OF_PERICENTER":"28.4524","OBJECT_NAME":"STARLINK-4022","FILE":"3650001","PERIAPSIS":"537.860","APOAPSIS":"541.570","REV_AT_EPOCH":"2742","TIME_SYSTEM":"UTC","MEAN_ELEMENT_THEORY":"SGP4","EPHEMERIS_TYPE":"0","NORAD_CAT_ID":"52629","MEAN_ANOMALY":"331.6614","OBJECT_ID":"2022-052AH","TLE_LINE1":"1 52629U 22052AH  22313.74291369  .00000746  00000-0  64981-4 0  9996","MEAN_MOTION_DOT":"0.00000746","DECAY_DATE":null,"INCLINATION":"53.2197","REF_FRAME":"TEME","TLE_LINE2":"2 52629  53.2197 327.7207 0002681  28.4524 331.6614 15.08849911 27428","ECCENTRICITY":"0.00026810","SITE":"AFETR","PERIOD":"95.437","LAUNCH_DATE":"2022-05-14","MEAN_MOTION":"15.08849911","BSTAR":"0.00006498100000","RCS_SIZE":"LARGE","SEMIMAJOR_AXIS":"6917.850","EPOCH":"2022-11-09T17:49:47.742816","OBJECT_TYPE":"PAYLOAD","COUNTRY_CODE":"US"},{"EPHEMERIS_TYPE":"0","NORAD_CAT_ID":"52630","MEAN_ANOMALY":"332.6800","MEAN_ELEMENT_THEORY":"SGP4","TIME_SYSTEM":"UTC","PERIOD":"95.439","SITE":"AFETR","ECCENTRICITY":"0.00027840","DECAY_DATE":null,"TLE_LINE1":"1 52630U 22052AJ  22313.75397454 -.00004699  00000-0 -27750-3 0  9996","MEAN_MOTION_DOT":"-0.00004699","INCLINATION":"53.2189","REF_FRAME":"TEME","TLE_LINE2":"2 52630  53.2189 327.6758 0002784  27.4339 332.6800 15.08810947 27423","OBJECT_ID":"2022-052AJ","BSTAR":"-0.00027750000000","LAUNCH_DATE":"2022-05-14","MEAN_MOTION":"15.08810947","COUNTRY_CODE":"US","OBJECT_TYPE":"PAYLOAD","EPOCH":"2022-11-09T18:05:43.400256","RCS_SIZE":"LARGE","SEMIMAJOR_AXIS":"6917.969","RA_OF_ASC_NODE":"327.6758","CENTER_NAME":"EARTH","GP_ID":"217275963","CLASSIFICATION_TYPE":"U","ELEMENT_SET_NO":"999","ARG_OF_PERICENTER":"27.4339","MEAN_MOTION_DDOT":"0.0000000000000","REV_AT_EPOCH":"2742","APOAPSIS":"541.760","OBJECT_NAME":"STARLINK-3989","FILE":"3650001","PERIAPSIS":"537.908"},{"ELEMENT_SET_NO":"999","CLASSIFICATION_TYPE":"U","GP_ID":"217274711","RA_OF_ASC_NODE":"327.7386","CENTER_NAME":"EARTH","FILE":"3650001","PERIAPSIS":"538.049","OBJECT_NAME":"STARLINK-3794","REV_AT_EPOCH":"2743","APOAPSIS":"541.539","ARG_OF_PERICENTER":"32.4499","MEAN_MOTION_DDOT":"0.0000000000000","INCLINATION":"53.2191","TLE_LINE1":"1 52631U 22052AK  22313.73923251 -.00011356  00000-0 -69675-3 0  9995","DECAY_DATE":null,"MEAN_MOTION_DOT":"-0.00011356","REF_FRAME":"TEME","TLE_LINE2":"2 52631  53.2191 327.7386 0002522  32.4499 327.6648 15.08824113 27433","OBJECT_ID":"2022-052AK","SITE":"AFETR","PERIOD":"95.439","ECCENTRICITY":"0.00025220","TIME_SYSTEM":"UTC","EPHEMERIS_TYPE":"0","NORAD_CAT_ID":"52631","MEAN_ANOMALY":"327.6648","MEAN_ELEMENT_THEORY":"SGP4","EPOCH":"2022-11-09T17:44:29.688864","RCS_SIZE":"LARGE","SEMIMAJOR_AXIS":"6917.929","COUNTRY_CODE":"US","OBJECT_TYPE":"PAYLOAD","LAUNCH_DATE":"2022-05-14","MEAN_MOTION":"15.08824113","BSTAR":"-0.00069675000000"}];
